[{"OBJECT_NAME":"STARLINK-2104","OBJECT_ID":"2021-005AM","EPOCH":"2026-03-09T21:54:21.353760","MEAN_MOTION":15.06426617,"ECCENTRICITY":0.00013635,"INCLINATION":53.0579,"RA_OF_ASC_NODE":30.8657,"ARG_OF_PERICENTER":64.8855,"MEAN_ANOMALY":295.2275,"EPHEMERIS_TYPE":0,"CLASSIFICATION_TYPE":"U","NORAD_CAT_ID":47384,"ELEMENT_SET_NO":999,"REV_AT_EPOCH":28349,"BSTAR":0.00031171909,"MEAN_MOTION_DOT":4.368e-5,"MEAN_MOTION_DDOT":0},{"OBJECT_NAME":"LEMUR-2-LLOYD","OBJECT_ID":"2024-149DP","EPOCH":"2026-03-09T11:02:25.245024","MEAN_MOTION":15.07168338,"ECCENTRICITY":0.00051866,"INCLINATION":97.678,"RA_OF_ASC_NODE":149.6779,"ARG_OF_PERICENTER":125.6096,"MEAN_ANOMALY":234.5616,"EPHEMERIS_TYPE":0,"CLASSIFICATION_TYPE":"U","NORAD_CAT_ID":60577,"ELEMENT_SET_NO":999,"REV_AT_EPOCH":8536,"BSTAR":0.00080142638,"MEAN_MOTION_DOT":0.00012007,"MEAN_MOTION_DDOT":0}]
